GLOBALSTAR M024         
1 25883U 99043A   24124.59204950 -.00000129  00000+0 -22604-2 0  9997
2 25883  52.0012 224.8039 0002032 153.6944 218.7217 11.10160374 69372
GLOBALSTAR M027         
1 25884U 99043B   24124.38366203 -.00000109  00000+0 -17034-2 0  9994
2 25884  52.0214 291.6480 0021658  51.5077 308.7654 11.04368063 95964
GLOBALSTAR M054         
1 25885U 99043C   24124.26754127 -.00000045  00000+0  67822-3 0  9997
2 25885  52.0098 127.9929 0004622 196.2929 176.4297 11.39203151 72332
GLOBALSTAR M053         
1 25886U 99043D   24124.57337543 -.00000067  00000+0  61195-4 0  9993
2 25886  52.0005  51.6291 0003638  99.6384  71.5480 11.27654764 73239
GLOBALSTAR M058         
1 25907U 99049A   24124.24901194 -.00000052  00000+0  42993-3 0  9994
2 25907  51.9906 123.7953 0002342 212.1731 147.8961 11.93176662492602
GLOBALSTAR M050         
1 25908U 99049B   24124.35161198 -.00000125  00000+0 -41927-3 0  9997
2 25908  51.9964 161.8183 0009045 294.0832  79.0648 12.07433662 98683
GLOBALSTAR M033         
1 25909U 99049C   24124.55449243  .00000026  00000+0  11286-2 0  9992
2 25909  51.9922  61.3857 0011736 144.9491 215.2130 12.20272344118466
GLOBALSTAR M055         
1 25910U 99049D   24124.57934758 -.00000066  00000+0  23937-3 0  9998
2 25910  52.0007  91.9960 0007298   2.7478 357.3413 12.29400394118124
